[
    {
        "Altitude(m)": 717864.5493179323,
        "Argument of Periapsis(deg)": 0.010251109067964361,
        "Eccentricity": 0.0,
        "Inclination(deg)": 45.0,
        "Latitude(deg)": -45.11161511435221,
        "Longitude(deg)": 57.422011704603825,
        "Mean Anomaly(deg)": -87.80190501726725,
        "RAAN(deg)": 244.99032325268763,
        "Satellite Name": "Constellation 1 1094",
        "Satellite Number": 1094,
        "Semi-Major Axis(m)": 7083131.272910544,
        "Time(s)": 171
    },
    {
        "Altitude(m)": 717863.5696930591,
        "Argument of Periapsis(deg)": 0.010311057074209765,
        "Eccentricity": 0.0,
        "Inclination(deg)": 45.0,
        "Latitude(deg)": -45.10925259215375,
        "Longitude(deg)": 57.503410305384314,
        "Mean Anomaly(deg)": -87.74120387701741,
        "RAAN(deg)": 244.99026666352208,
        "Satellite Name": "Constellation 1 1094",
        "Satellite Number": 1094,
        "Semi-Major Axis(m)": 7083131.272910544,
        "Time(s)": 172
    },
    {
        "Altitude(m)": 717862.563729627,
        "Argument of Periapsis(deg)": 0.010371005080455171,
        "Eccentricity": 0.0,
        "Inclination(deg)": 45.0,
        "Latitude(deg)": -45.10682608194649,
        "Longitude(deg)": 57.58480177177227,
        "Mean Anomaly(deg)": -87.68050273676745,
        "RAAN(deg)": 244.99021007435653,
        "Satellite Name": "Constellation 1 1094",
        "Satellite Number": 1094,
        "Semi-Major Axis(m)": 7083131.272910544,
        "Time(s)": 173
    },
    {
        "Altitude(m)": 717861.531431328,
        "Argument of Periapsis(deg)": 0.010430953086700577,
        "Eccentricity": 0.0,
        "Inclination(deg)": 45.0,
        "Latitude(deg)": -45.10433559443736,
        "Longitude(deg)": 57.66618591437145,
        "Mean Anomaly(deg)": -87.61980159651753,
        "RAAN(deg)": 244.9901534851909,
        "Satellite Name": "Constellation 1 1094",
        "Satellite Number": 1094,
        "Semi-Major Axis(m)": 7083131.272910544,
        "Time(s)": 174
    },
    {
        "Altitude(m)": 717860.4728019617,
        "Argument of Periapsis(deg)": 0.010490901092945983,
        "Eccentricity": 0.0,
        "Inclination(deg)": 45.0,
        "Latitude(deg)": -45.101781140613156,
        "Longitude(deg)": 57.74756254391639,
        "Mean Anomaly(deg)": -87.5591004562677,
        "RAAN(deg)": 244.99009689602534,
        "Satellite Name": "Constellation 1 1094",
        "Satellite Number": 1094,
        "Semi-Major Axis(m)": 7083131.272910544,
        "Time(s)": 175
    },
    {
        "Altitude(m)": 717859.3878454125,
        "Argument of Periapsis(deg)": 0.010550849099191389,
        "Eccentricity": 0.0,
        "Inclination(deg)": 45.0,
        "Latitude(deg)": -45.09916273174048,
        "Longitude(deg)": 57.82893147127543,
        "Mean Anomaly(deg)": -87.49839931601774,
        "RAAN(deg)": 244.99004030685978,
        "Satellite Name": "Constellation 1 1094",
        "Satellite Number": 1094,
        "Semi-Major Axis(m)": 7083131.272910544,
        "Time(s)": 176
    },
    {
        "Altitude(m)": 717858.2765656748,
        "Argument of Periapsis(deg)": 0.010610797105436795,
        "Eccentricity": 0.0,
        "Inclination(deg)": 45.0,
        "Latitude(deg)": -45.0964803793653,
        "Longitude(deg)": 57.91029250745353,
        "Mean Anomaly(deg)": -87.43769817576779,
        "RAAN(deg)": 244.98998371769423,
        "Satellite Name": "Constellation 1 1094",
        "Satellite Number": 1094,
        "Semi-Major Axis(m)": 7083131.272910544,
        "Time(s)": 177
    },
    {
        "Altitude(m)": 717857.1389668275,
        "Argument of Periapsis(deg)": 0.0106707451116822,
        "Eccentricity": 0.0,
        "Inclination(deg)": 45.0,
        "Latitude(deg)": -45.09373409531312,
        "Longitude(deg)": 57.991645295499254,
        "Mean Anomaly(deg)": -87.37699703551793,
        "RAAN(deg)": 244.98992712852868,
        "Satellite Name": "Constellation 1 1094",
        "Satellite Number": 1094,
        "Semi-Major Axis(m)": 7083131.272910544,
        "Time(s)": 178
    },
    {
        "Altitude(m)": 717855.9750530603,
        "Argument of Periapsis(deg)": 0.010730693117927606,
        "Eccentricity": 0.0,
        "Inclination(deg)": 45.0,
        "Latitude(deg)": -45.09092389168782,
        "Longitude(deg)": 58.07298998289561,
        "Mean Anomaly(deg)": -87.31629589526806,
        "RAAN(deg)": 244.98987053936304,
        "Satellite Name": "Constellation 1 1094",
        "Satellite Number": 1094,
        "Semi-Major Axis(m)": 7083131.272910544,
        "Time(s)": 179
    },
    {
        "Altitude(m)": 717854.7848286416,
        "Argument of Periapsis(deg)": 0.01079064112417301,
        "Eccentricity": 0.0,
        "Inclination(deg)": 45.0,
        "Latitude(deg)": -45.08804978087259,
        "Longitude(deg)": 58.15432621298187,
        "Mean Anomaly(deg)": -87.2555947550181,
        "RAAN(deg)": 244.9898139501975,
        "Satellite Name": "Constellation 1 1094",
        "Satellite Number": 1094,
        "Semi-Major Axis(m)": 7083131.272910544,
        "Time(s)": 180
    },
    {
        "Altitude(m)": 717853.5682979599,
        "Argument of Periapsis(deg)": 0.010850589130418416,
        "Eccentricity": 0.0,
        "Inclination(deg)": 45.0,
        "Latitude(deg)": -45.085111775528866,
        "Longitude(deg)": 58.235653797344185,
        "Mean Anomaly(deg)": -87.19489361476825,
        "RAAN(deg)": 244.98975736103193,
        "Satellite Name": "Constellation 1 1094",
        "Satellite Number": 1094,
        "Semi-Major Axis(m)": 7083131.272910544,
        "Time(s)": 181
    },
    {
        "Altitude(m)": 717852.3254654814,
        "Argument of Periapsis(deg)": 0.01091053713666382,
        "Eccentricity": 0.0,
        "Inclination(deg)": 45.0,
        "Latitude(deg)": -45.08210988859635,
        "Longitude(deg)": 58.31697254772259,
        "Mean Anomaly(deg)": -87.13419247451839,
        "RAAN(deg)": 244.98970077186638,
        "Satellite Name": "Constellation 1 1094",
        "Satellite Number": 1094,
        "Semi-Major Axis(m)": 7083131.272910544,
        "Time(s)": 182
    },
    {
        "Altitude(m)": 717851.0563357794,
        "Argument of Periapsis(deg)": 0.010970485142909228,
        "Eccentricity": 0.0,
        "Inclination(deg)": 45.0,
        "Latitude(deg)": -45.07904413329263,
        "Longitude(deg)": 58.39828227601394,
        "Mean Anomaly(deg)": -87.07349133426843,
        "RAAN(deg)": 244.98964418270083,
        "Satellite Name": "Constellation 1 1094",
        "Satellite Number": 1094,
        "Semi-Major Axis(m)": 7083131.272910544,
        "Time(s)": 183
    },
    {
        "Altitude(m)": 717849.7609135236,
        "Argument of Periapsis(deg)": 0.011030433149154634,
        "Eccentricity": 0.0,
        "Inclination(deg)": 45.0,
        "Latitude(deg)": -45.07591452311296,
        "Longitude(deg)": 58.47958279427472,
        "Mean Anomaly(deg)": -87.01279019401854,
        "RAAN(deg)": 244.9895875935352,
        "Satellite Name": "Constellation 1 1094",
        "Satellite Number": 1094,
        "Semi-Major Axis(m)": 7083131.272910544,
        "Time(s)": 184
    },
    {
        "Altitude(m)": 717848.4392034794,
        "Argument of Periapsis(deg)": 0.01109038115540004,
        "Eccentricity": 0.0,
        "Inclination(deg)": 45.0,
        "Latitude(deg)": -45.07272107183017,
        "Longitude(deg)": 58.56087374662838,
        "Mean Anomaly(deg)": -86.95208905376867,
        "RAAN(deg)": 244.98953100436964,
        "Satellite Name": "Constellation 1 1094",
        "Satellite Number": 1094,
        "Semi-Major Axis(m)": 7083131.272910544,
        "Time(s)": 185
    },
    {
        "Altitude(m)": 717847.0912105029,
        "Argument of Periapsis(deg)": 0.011150329161645444,
        "Eccentricity": 0.0,
        "Inclination(deg)": 45.0,
        "Latitude(deg)": -45.06946379349356,
        "Longitude(deg)": 58.642155281655576,
        "Mean Anomaly(deg)": -86.89138791351874,
        "RAAN(deg)": 244.98947441520409,
        "Satellite Name": "Constellation 1 1094",
        "Satellite Number": 1094,
        "Semi-Major Axis(m)": 7083131.272910544,
        "Time(s)": 186
    },
    {
        "Altitude(m)": 717845.7169395629,
        "Argument of Periapsis(deg)": 0.01121027716789085,
        "Eccentricity": 0.0,
        "Inclination(deg)": 45.0,
        "Latitude(deg)": -45.066142702429886,
        "Longitude(deg)": 58.72342704381574,
        "Mean Anomaly(deg)": -86.83068677326888,
        "RAAN(deg)": 244.98941782603853,
        "Satellite Name": "Constellation 1 1094",
        "Satellite Number": 1094,
        "Semi-Major Axis(m)": 7083131.272910544,
        "Time(s)": 187
    },
    {
        "Altitude(m)": 717844.316395711,
        "Argument of Periapsis(deg)": 0.011270225174136258,
        "Eccentricity": 0.0,
        "Inclination(deg)": 45.0,
        "Latitude(deg)": -45.062757813242094,
        "Longitude(deg)": 58.804688845839,
        "Mean Anomaly(deg)": -86.76998563301905,
        "RAAN(deg)": 244.98936123687298,
        "Satellite Name": "Constellation 1 1094",
        "Satellite Number": 1094,
        "Semi-Major Axis(m)": 7083131.272910544,
        "Time(s)": 188
    },
    {
        "Altitude(m)": 717842.8895840958,
        "Argument of Periapsis(deg)": 0.011330173180381662,
        "Eccentricity": 0.0,
        "Inclination(deg)": 45.0,
        "Latitude(deg)": -45.05930914080934,
        "Longitude(deg)": 58.885940500631534,
        "Mean Anomaly(deg)": -86.70928449276909,
        "RAAN(deg)": 244.9893046477074,
        "Satellite Name": "Constellation 1 1094",
        "Satellite Number": 1094,
        "Semi-Major Axis(m)": 7083131.272910544,
        "Time(s)": 189
    }
]